    CK24C030  2023 11  9.1644  6.713384  0.424943  159.7170  359.7027   22.4516  20251024   9.0  4.0  C/2024 C3 (PANSTARRS)                                    MPC184412
    CK24C040  2024 01 30.1947  1.470115  0.982340  321.4898  220.6614   79.2822  20251024  14.5  4.0  C/2024 C4 (ATLAS)                                        MPEC 2024-Q20
    CK24D010  2027 12  3.4654  6.692169  0.999468  125.7878  179.6571  132.4487  20251024   7.3  4.0  C/2024 D1 (Lemmon)                                       MPC185658
    CK24E010  2026 01 20.7673  0.566083  1.000078  243.6275  108.0793   75.2399  20251024   7.0  4.0  C/2024 E1 (Wierzchos)                                    MPC188411
    CK24E020  2023 10 25.5225  7.696822  0.850059  358.1747  135.6582  155.6520  20251024   8.0  4.0  C/2024 E2 (Bok)                                          MPEC 2024-JU4
    PK24F010  2023 10 25.8539  1.859848  0.460017  229.5877  251.5405    7.0049  20251024  16.0  4.0  P/2024 F1 (PANSTARRS)                                    MPEC 2024-JU4
    CK24F020  2024 07 28.9618  3.967462  0.601096  112.8864  138.9390   13.7439  20251024  11.0  4.0  C/2024 F2 (PANSTARRS)                                    MPC188411
    PK24F09G  2024 05 20.4476  1.596430  0.509975  245.9400  253.0416    1.7312  20251024  14.0  4.0  P/2024 FG9 (Nanshan-Hahn)                                MPEC 2024-UA9
    CK24G010  2024 10 21.0650  3.930056  0.967849  128.2219   30.6054   95.3890  20251024  10.0  4.0  C/2024 G1 (Wierzchos)                                    MPC184412
    CK24G020  2025 06 13.5586  5.348276  0.992520  328.7416  171.3986  122.1219  20251024   7.0  4.0  C/2024 G2 (ATLAS)                                        MPC186631
    CK24G030  2025 01 13.4233  0.093605  1.000007  108.1425  220.3673  116.8473  20251024   9.0  4.0  C/2024 G3 (ATLAS)                                        MPC184412
    CK24G040  2026 03 21.5528  4.900570  0.998483  131.4168  152.9766   33.0272  20251024   8.0  4.0  C/2024 G4 (PANSTARRS)                                    MPC188411
    CK24G050  2024 09  7.0914  2.953195  0.994982  209.5897  316.3882   50.3875  20251024  13.0  4.0  C/2024 G5 (Leonard)                                      MPEC 2024-JC6
    CK24G060  2026 02 20.6489  6.429973  1.001993   23.4300  250.9515  120.4535  20251024   5.5  4.0  C/2024 G6 (ATLAS)                                        MPC188411
    CK24G070  2025 02 10.0338  6.027550  1.001849  289.6536  191.9681  131.5122  20251024   7.0  4.0  C/2024 G7 (ATLAS)                                        MPC184412
    AK24G080  2024 06 15.5721  1.172466  0.991690  249.1559   11.2515   97.4250  20251024  20.0  2.0  A/2024 G8                                                MPEC 2024-Q05
    PK24J010  2023 11 11.3917  2.636349  0.307815  200.3708  321.9345   13.1602  20251024  14.5  4.0  P/2024 J1 (PANSTARRS)                                    MPEC 2024-JU4
    CK24J020  2025 03 19.7654  1.811138  0.987773  143.1508  189.0600   79.2977  20251024  11.5  4.0  C/2024 J2 (Wierzchos)                                    MPC188411
    CK24J030  2026 11 25.3732  3.865360  1.000526   74.0886  285.9615   75.6416  20251024   5.0  4.0  C/2024 J3 (ATLAS)                                        MPC188411
    CK24J040  2025 04 25.9649  5.695086  0.999069  127.8563   19.3099  117.5258  20251024   8.0  4.0  C/2024 J4 (Lemmon)                                       MPC188411
    PK24K010  2024 05  8.8596  3.454991  0.495166  351.9120  251.6844    1.7861  20251024  13.5  4.0  P/2024 K1 (PANSTARRS)                                    MPEC 2024-LB4
    CK24L010  2025 04 23.0516  5.348041  0.533518  171.7855   45.1391   99.1609  20251024  10.0  4.0  C/2024 L1 (PANSTARRS)                                    MPC186631
    CK24L020  2025 06 12.5575  8.326212  0.982456  345.6036  266.2859  139.4871  20251024   7.5  3.2  C/2024 L2 (PANSTARRS)                                    MPEC 2024-P23
    CK24L030  2023 11 23.9725  6.857737  1.003433   59.0689  294.9985  111.5915  20251024   9.5  4.0  C/2024 L3 (PANSTARRS)                                    MPEC 2024-RQ6
    CK24L050  2025 03 10.4010  3.432505  1.036991  290.5191  139.1781  166.5727  20251024   9.0  4.0  C/2024 L5 (ATLAS)                                        MPC188411
    CK24M010  2024 11 19.9833  1.703394  0.942782  345.5875   76.2143   73.7095  20251024  12.0  4.0  C/2024 M1 (ATLAS)                                        MPC188412
    CK24N010  2025 10 18.8733  4.398394  1.001073   91.2538  323.0243   88.7815  20251024  10.5  4.0  C/2024 N1 (PANSTARRS)                                    MPC188412
    CK24N030  2025 04 11.4995  5.014642  1.001716   86.8914   82.6094   88.7288  20251024   8.0  4.0  C/2024 N3 (Sarneczky)                                    MPC188412
    CK24N040  2025 01 10.3276  5.398195  1.004207  116.7258  339.6530   49.7784  20251024   7.5  4.0  C/2024 N4 (Sarneczky)                                    MPC188412
    CK24O010  2023 01 28.2720  6.605871  1.000333  349.8678  303.3449   59.0814  20251024   8.5  4.0  C/2024 O1 (PANSTARRS)                                    MPEC 2024-PC5
    PK24O020  2024 04 20.0535  3.697721  0.498899  310.7754    6.8068   28.9782  20251024  12.0  4.0  P/2024 O2 (PANSTARRS)                                    MPEC 2024-UA9
    PK24O02C  2024 10  9.2946  0.593032  0.774129  258.5456  136.6126    7.6708  20251024  20.5  4.0  P/2024 OC2 (PANSTARRS)                                   MPEC 2025-A40
    CK24P07N  2024 12  6.4239  1.524589  0.977285   74.2723  358.5845  101.2065  20251024  15.2  4.0  C/2024 PN7 (PANSTARRS)                                   MPC186632
    PK24Q010  2024 06 14.6867  1.640248  0.534643  284.7049   23.0380    5.0069  20251024  17.0  4.0  P/2024 Q1 (PANSTARRS)                                    MPEC 2024-UQ8
    CK24Q030  2025 03  5.2124  2.091575  1.001415   70.1276  337.2888  121.3769  20251024  15.0  4.0  C/2024 Q3 (PANSTARRS)                                    MPC185660
    CK24Q040  2024 11 11.9536  5.419514  0.990831  133.0440  324.2656    3.3163  20251024  10.0  4.0  C/2024 Q4 (PANSTARRS)                                    MPC188412
    PK24R010  2024 06 16.0586  1.753879  0.493033  230.8295   84.9851   12.7284  20251024  18.0  4.0  P/2024 R1 (PANSTARRS)                                    MPEC 2024-TP3
    PK24R020  2024 10  1.5045  2.302110  0.268717  203.8755  192.9851   15.1182  20251024  15.5  4.0  P/2024 R2 (PANSTARRS)                                    MPC182883
    PK24R030  2024 05  8.8940  2.345513  0.267672  309.4764   33.1533   14.7055  20251024  15.0  4.0  P/2024 R3 (PANSTARRS)                                    MPEC 2024-YC7
    CK24R040  2027 10 26.6833  4.408838  1.002537  108.9993  345.9390   95.3698  20251024   6.5  4.0  C/2024 R4 (PANSTARRS)                                    MPC188412
    CK24S010  2024 10 28.4482  0.007977  0.999907   69.9109  348.0865  142.1673  20251024  15.5  4.0  C/2024 S1 (ATLAS)                                        MPC188412
    PK24S020  2024 09 16.2419  2.047501  0.593468   49.1563    8.3348    7.5264  20251024  15.0  4.0  P/2024 S2 (Rankin)                                       MPEC 2025-A40
    PK24T010  2024 09 30.3773  2.287180  0.653370  164.8687  279.7098   17.6201  20251024  14.5  4.0  P/2024 T1 (Rankin)                                       MPC182883
    PK24T020  2024 12  8.3316  1.972469  0.680396  343.8344  113.0602   12.9289  20251024  16.0  4.0  P/2024 T2 (Rankin)                                       MPC184413
    CK24T030  2025 03 15.3047  3.716036  0.958190  336.8934   74.8270   53.4427  20251024  11.5  4.0  C/2024 T3 (PANSTARRS)                                    MPC188412
    CK24T050  2027 05  6.2050  3.840650  1.002262  352.4524  100.6799   52.3868  20251024   5.5  4.0  C/2024 T5 (ATLAS)                                        MPC188412
    CK24U010  2024 06 30.4996  4.836743  0.989936  188.0940  270.2640  128.7552  20251024  10.0  4.0  C/2024 U1 (PANSTARRS)                                    MPC188412
    AK24U020  2026 01 15.3272  8.178980  1.002880   29.8265   56.0702  120.6646  20251024  12.1  2.0  A/2024 U2                                                MPC188412
    CK24V010  2025 04  4.1172  2.318544  0.989995  168.6719  328.1941   54.6254  20251024  14.8  4.0  C/2024 V1 (Borisov)                                      MPC185660
    CK24V020  2024 11  3.8300  1.243317  0.968423   13.7339  102.2006   95.9727  20251024  19.0  4.0  C/2024 V2 (Sarneczky)                                    MPEC 2024-YC7
    CK24W010  2025 03 19.1226  2.560777  0.943052  256.7438  310.7253   83.2017  20251024  15.0  4.0  C/2024 W1 (PANSTARRS)                                    MPC182883
    AK24W020  2025 02 27.4168  3.720802  1.002243  168.0064  241.9368  116.6115  20251024  15.6  2.0  A/2024 W2                                                MPC182883
    CK24X010  2025 08  3.2827  3.816631  0.595309  124.3848  351.9397    6.4689  20251024  11.3  4.0  C/2024 X1 (Fazekas)                                      MPC182884
    CK24X020  2025 07  7.9476  3.676362  0.927629  315.7931  122.5213  109.2237  20251024   9.6  4.0  C/2024 X2 (ATLAS)                                        MPC185660
    PK24X030  2024 09  5.8129  2.614546  0.626206  352.9609  113.3633    2.9723  20251024  14.6  4.0  P/2024 X3 (PANSTARRS)                                    MPC185660
    CK24X040  2025 09  1.9746  3.604752  0.642203  153.3014  258.9451   34.6669  20251024  12.6  4.0  C/2024 X4 (PANSTARRS)                                    MPEC 2025-A40
    CK24X14K  2025 05 20.9252  2.059639  0.878930  243.4924  239.0902  109.2138  20251024  15.5  4.0  C/2024 XK14 (Bok)                                        MPC186632
    CK24Y010  2024 11 27.0046  0.820435  0.986926  238.0819  112.5487   64.8308  20251024  17.6  4.0  C/2024 Y1 (Masek)                                        MPC182884
